[{"OBJECT_NAME":"AFR-1","OBJECT_ID":"2023-084AJ","EPOCH":"2026-03-09T23:02:07.499328","MEAN_MOTION":15.27543824,"ECCENTRICITY":0.00099838,"INCLINATION":97.6099,"RA_OF_ASC_NODE":203.4313,"ARG_OF_PERICENTER":334.9676,"MEAN_ANOMALY":25.1077,"EPHEMERIS_TYPE":0,"CLASSIFICATION_TYPE":"U","NORAD_CAT_ID":56964,"ELEMENT_SET_NO":999,"REV_AT_EPOCH":15207,"BSTAR":0.00024843733,"MEAN_MOTION_DOT":6.624e-5,"MEAN_MOTION_DDOT":0},{"OBJECT_NAME":"STARLINK-36467","OBJECT_ID":"2026-003Q","EPOCH":"2026-03-09T12:06:19.370304","MEAN_MOTION":15.27584661,"ECCENTRICITY":0.00013875,"INCLINATION":43.0012,"RA_OF_ASC_NODE":228.278,"ARG_OF_PERICENTER":242.6137,"MEAN_ANOMALY":117.4574,"EPHEMERIS_TYPE":0,"CLASSIFICATION_TYPE":"U","NORAD_CAT_ID":67348,"ELEMENT_SET_NO":999,"REV_AT_EPOCH":879,"BSTAR":0.00098456726,"MEAN_MOTION_DOT":0.00026934,"MEAN_MOTION_DDOT":0}]
